CORAL                   
1 67684U 98067YA  26087.07024888  .00088583  00000+0  11749-2 0  9996
2 67684  51.6309 339.6483 0012636 241.6761 118.2957 15.57412936  7652
GXIBA-1                 
1 67685U 98067YB  26087.12648433  .00046994  00000+0  71759-3 0  9999
2 67685  51.6320 340.0239 0011859 249.3772 110.5947 15.53874924  7653
UITMSAT-2               
1 67686U 98067YC  26087.11230092  .00058539  00000+0  86220-3 0  9994
2 67686  51.6320 339.9313 0009050 220.6186 139.4131 15.54802779  7650
HMU-SAT2                
1 67687U 98067YD  26087.13129700  .00045541  00000+0  70312-3 0  9994
2 67687  51.6326 340.0583 0008547 223.8304 136.2009 15.53622616  7575
LEOPARD                 
1 67688U 98067YE  26086.99018672  .00052781  00000+0  79128-3 0  9991
2 67688  51.6330 340.6163 0008714 220.8121 139.2218 15.54365889  7551
CREW DRAGON 12          
1 67796U 26031A   26087.16470414  .00012619  00000+0  24003-3 0  9997
2 67796  51.6345 341.0267 0006226 240.9881 119.0483 15.48601072559135
PROGRESS-MS 33          
1 68319U 26058A   26087.16470414  .00012619  00000+0  24003-3 0  9998
2 68319  51.6345 341.0267 0006226 240.9881 119.0483 15.48601072   644
